{"type": "FeatureCollection", "features": [ {"type": "Feature", "properties": {"norad_id": 66540, "name": "STARLINK-35818", "group": "last-30-days", "lat": 28.092657602478084, "lon": 120.71647920704054, "alt_km": 377.9896918905315, "timestamp": "2025-12-07T07:31:35.086207+00:00", "meta": {"OBJECT_NAME": "STARLINK-35818", "OBJECT_ID": "2025-265AA", "EPOCH": "2025-12-06T22:00:01.999584", "MEAN_MOTION": 15.63719538, "ECCENTRICITY": 0.00016352, "INCLINATION": 43.0001, "RA_OF_ASC_NODE": 88.1341, "ARG_OF_PERICENTER": 280.4137, "MEAN_ANOMALY": 47.4996, "EPHEMERIS_TYPE": 0, "CLASSIFICATION_TYPE": "U", "NORAD_CAT_ID": 66540, "ELEMENT_SET_NO": 999, "REV_AT_EPOCH": 405, "BSTAR": -0.023636588, "MEAN_MOTION_DOT": -0.01995806, "MEAN_MOTION_DDOT": 0}, "tle": {"line1": "1 66540U 25265AA  25340.91668981 -.01995806  00000+0 -23637-1 0  9994", "line2": "2 66540  43.0001  88.1341 0001635 280.4137  47.4996 15.63719538  4052"}}, "geometry": {"type": "Point", "coordinates": [120.71647920704054, 28.092657602478084]}}, {"type": "Feature", "properties": {"norad_id": 66541, "name": "STARLINK-35796", "group": "last-30-days", "lat": 29.153007314495525, "lon": 122.53373179082332, "alt_km": 377.8717367093577, "timestamp": "2025-12-07T07:31:35.086217+00:00", "meta": {"OBJECT_NAME": "STARLINK-35796", "OBJECT_ID": "2025-265AB", "EPOCH": "2025-12-06T22:00:01.999584", "MEAN_MOTION": 15.63717426, "ECCENTRICITY": 0.00017136, "INCLINATION": 43.0003, "RA_OF_ASC_NODE": 88.1293, "ARG_OF_PERICENTER": 280.9487, "MEAN_ANOMALY": 48.8815, "EPHEMERIS_TYPE": 0, "CLASSIFICATION_TYPE": "U", "NORAD_CAT_ID": 66541, "ELEMENT_SET_NO": 999, "REV_AT_EPOCH": 405, "BSTAR": -0.023591184, "MEAN_MOTION_DOT": -0.01992353, "MEAN_MOTION_DDOT": 0}, "tle": {"line1": "1 66541U 25265AB  25340.91668981 -.01992353  00000+0 -23591-1 0  9998", "line2": "2 66541  43.0003  88.1293 0001713 280.9487  48.8815 15.63717426  4050"}}, "geometry": {"type": "Point", "coordinates": [122.53373179082332, 29.153007314495525]}}, {"type": "Feature", "properties": {"norad_id": 66542, "name": "STARLINK-35833", "group": "last-30-days", "lat": 30.188421471899662, "lon": 124.3891285468239, "alt_km": 377.7315525429458, "timestamp": "2025-12-07T07:31:35.086226+00:00", "meta": {"OBJECT_NAME": "STARLINK-35833", "OBJECT_ID": "2025-265AC", "EPOCH": "2025-12-06T22:00:01.999584", "MEAN_MOTION": 15.63718743, "ECCENTRICITY": 0.00016927, "INCLINATION": 43.0005, "RA_OF_ASC_NODE": 88.1247, "ARG_OF_PERICENTER": 281.3459, "MEAN_ANOMALY": 50.4024, "EPHEMERIS_TYPE": 0, "CLASSIFICATION_TYPE": "U", "NORAD_CAT_ID": 66542, "ELEMENT_SET_NO": 999, "REV_AT_EPOCH": 405, "BSTAR": -0.023632641, "MEAN_MOTION_DOT": -0.01995502, "MEAN_MOTION_DDOT": 0}, "tle": {"line1": "1 66542U 25265AC  25340.91668981 -.01995502  00000+0 -23633-1 0  9995", "line2": "2 66542  43.0005  88.1247 0001692 281.3459  50.4024 15.63718743  4056"}}, "geometry": {"type": "Point", "coordinates": [124.3891285468239, 30.188421471899662]}}, {"type": "Feature", "properties": {"norad_id": 66543, "name": "STARLINK-35315", "group": "last-30-days", "lat": 31.196040160455876, "lon": 126.28127930163637, "alt_km": 377.64895909430106, "timestamp": "2025-12-07T07:31:35.086239+00:00", "meta": {"OBJECT_NAME": "STARLINK-35315", "OBJECT_ID": "2025-265AD", "EPOCH": "2025-12-06T22:00:01.999584", "MEAN_MOTION": 15.63717356, "ECCENTRICITY": 0.00016112, "INCLINATION": 43.0004, "RA_OF_ASC_NODE": 88.1193, "ARG_OF_PERICENTER": 277.6825, "MEAN_ANOMALY": 55.9828, "EPHEMERIS_TYPE": 0, "CLASSIFICATION_TYPE": "U", "NORAD_CAT_ID": 66543, "ELEMENT_SET_NO": 999, "REV_AT_EPOCH": 395, "BSTAR": -0.023583289, "MEAN_MOTION_DOT": -0.01991683, "MEAN_MOTION_DDOT": 0}, "tle": {"line1": "1 66543U 25265AD  25340.91668981 -.01991683  00000+0 -23583-1 0  9996", "line2": "2 66543  43.0004  88.1193 0001611 277.6825  55.9828 15.63717356  3951"}}, "geometry": {"type": "Point", "coordinates": [126.28127930163637, 31.196040160455876]}}, {"type": "Feature", "properties": {"norad_id": 66544, "name": "STARLINK-35728", "group": "last-30-days", "lat": 32.17627189130107, "lon": 128.21699363235564, "alt_km": 377.5403117266378, "timestamp": "2025-12-07T07:31:35.086249+00:00", "meta": {"OBJECT_NAME": "STARLINK-35728", "OBJECT_ID": "2025-265AE", "EPOCH": "2025-12-06T22:00:01.999584", "MEAN_MOTION": 15.63720943, "ECCENTRICITY": 0.00017342, "INCLINATION": 43.0001, "RA_OF_ASC_NODE": 88.1147, "ARG_OF_PERICENTER": 279.8429, "MEAN_ANOMALY": 55.7377, "EPHEMERIS_TYPE": 0, "CLASSIFICATION_TYPE": "U", "NORAD_CAT_ID": 66544, "ELEMENT_SET_NO": 999, "REV_AT_EPOCH": 405, "BSTAR": -0.023652878, "MEAN_MOTION_DOT": -0.01997189, "MEAN_MOTION_DDOT": 0}, "tle": {"line1": "1 66544U 25265AE  25340.91668981 -.01997189  00000+0 -23653-1 0  9992", "line2": "2 66544  43.0001  88.1147 0001734 279.8429  55.7377 15.63720943  4053"}}, "geometry": {"type": "Point", "coordinates": [128.21699363235564, 32.17627189130107]}}, {"type": "Feature", "properties": {"norad_id": 66545, "name": "SHIJIAN-30A", "group": "last-30-days", "lat": 13.562549246765219, "lon": 167.33031063792455, "alt_km": 527.1161845001561, "timestamp": "2025-12-07T07:31:35.086258+00:00", "meta": {"OBJECT_NAME": "SHIJIAN-30A", "OBJECT_ID": "2025-266A", "EPOCH": "2025-12-06T22:53:55.142880", "MEAN_MOTION": 15.15473934, "ECCENTRICITY": 0.00128119, "INCLINATION": 51.7998, "RA_OF_ASC_NODE": 359.9656, "ARG_OF_PERICENTER": 335.724, "MEAN_ANOMALY": 24.3132, "EPHEMERIS_TYPE": 0, "CLASSIFICATION_TYPE": "U", "NORAD_CAT_ID": 66545, "ELEMENT_SET_NO": 999, "REV_AT_EPOCH": 270, "BSTAR": 0.00084760967, "MEAN_MOTION_DOT": 0.00015998, "MEAN_MOTION_DDOT": 0}, "tle": {"line1": "1 66545U 25266A   25340.95411045  .00015998  00000+0  84761-3 0  9990", "line2": "2 66545  51.7998 359.9656 0012811 335.7240  24.3132 15.15473934  2703"}}, "geometry": {"type": "Point", "coordinates": [167.33031063792455, 13.562549246765219]}}, {"type": "Feature", "properties": {"norad_id": 66546, "name": "SHIJIAN-30B", "group": "last-30-days", "lat": 16.882379532726805, "lon": 164.45966354301504, "alt_km": 524.80059645436, "timestamp": "2025-12-07T07:31:35.086268+00:00", "meta": {"OBJECT_NAME": "SHIJIAN-30B", "OBJECT_ID": "2025-266B", "EPOCH": "2025-12-06T22:55:05.843136", "MEAN_MOTION": 15.15556495, "ECCENTRICITY": 0.00105114, "INCLINATION": 51.798, "RA_OF_ASC_NODE": 359.9684, "ARG_OF_PERICENTER": 338.7999, "MEAN_ANOMALY": 21.254, "EPHEMERIS_TYPE": 0, "CLASSIFICATION_TYPE": "U", "NORAD_CAT_ID": 66546, "ELEMENT_SET_NO": 999, "REV_AT_EPOCH": 270, "BSTAR": 0.00097314632, "MEAN_MOTION_DOT": 0.00018453, "MEAN_MOTION_DDOT": 0}, "tle": {"line1": "1 66546U 25266B   25340.95492874  .00018453  00000+0  97315-3 0  9998", "line2": "2 66546  51.7980 359.9684 0010511 338.7999  21.2540 15.15556495  2708"}}, "geometry": {"type": "Point", "coordinates": [164.45966354301504, 16.882379532726805]}}, {"type": "Feature", "properties": {"norad_id": 66547, "name": "SHIJIAN-30C", "group": "last-30-days", "lat": 19.754917821779593, "lon": 161.86794235935915, "alt_km": 524.9071105582552, "timestamp": "2025-12-07T07:31:35.086279+00:00", "meta": {"OBJECT_NAME": "SHIJIAN-30C", "OBJECT_ID": "2025-266C", "EPOCH": "2025-12-06T22:56:05.618976", "MEAN_MOTION": 15.15573868, "ECCENTRICITY": 0.00113923, "INCLINATION": 51.7991, "RA_OF_ASC_NODE": 359.974, "ARG_OF_PERICENTER": 330.979, "MEAN_ANOMALY": 29.0552, "EPHEMERIS_TYPE": 0, "CLASSIFICATION_TYPE": "U", "NORAD_CAT_ID": 66547, "ELEMENT_SET_NO": 999, "REV_AT_EPOCH": 270, "BSTAR": 0.00085718405, "MEAN_MOTION_DOT": 0.00016223, "MEAN_MOTION_DDOT": 0}, "tle": {"line1": "1 66547U 25266C   25340.95562059  .00016223  00000+0  85718-3 0  9999", "line2": "2 66547  51.7991 359.9740 0011392 330.9790  29.0552 15.15573868  2707"}}, "geometry": {"type": "Point", "coordinates": [161.86794235935915, 19.754917821779593]}}, {"type": "Feature", "properties": {"norad_id": 66548, "name": "CZ-2C R/B", "group": "last-30-days", "lat": 10.016225077198522, "lon": 5.0475218810100415, "alt_km": 520.3456060686631, "timestamp": "2025-12-07T07:31:35.086291+00:00", "meta": {"OBJECT_NAME": "CZ-2C R/B", "OBJECT_ID": "2025-266D", "EPOCH": "2025-12-06T22:03:51.685344", "MEAN_MOTION": 15.29995565, "ECCENTRICITY": 0.00843187, "INCLINATION": 52.0564, "RA_OF_ASC_NODE": 359.005, "ARG_OF_PERICENTER": 153.2198, "MEAN_ANOMALY": 207.3179, "EPHEMERIS_TYPE": 0, "CLASSIFICATION_TYPE": "U", "NORAD_CAT_ID": 66548, "ELEMENT_SET_NO": 999, "REV_AT_EPOCH": 272, "BSTAR": 0.00053172829, "MEAN_MOTION_DOT": 0.00017101, "MEAN_MOTION_DDOT": 0}, "tle": {"line1": "1 66548U 25266D   25340.91934821  .00017101  00000+0  53173-3 0  9992", "line2": "2 66548  52.0564 359.0050 0084318 153.2198 207.3179 15.29995565  2724"}}, "geometry": {"type": "Point", "coordinates": [5.0475218810100415, 10.016225077198522]}}, {"type": "Feature", "properties": {"norad_id": 66549, "name": "SHIJIAN-28", "group": "last-30-days", "lat": 0.41092069206326787, "lon": -85.65565799044377, "alt_km": 35667.845568027384, "timestamp": "2025-12-07T07:31:35.086305+00:00", "meta": {"OBJECT_NAME": "SHIJIAN-28", "OBJECT_ID": "2025-277A", "EPOCH": "2025-11-30T18:06:43.124256", "MEAN_MOTION": 2.28019775, "ECCENTRICITY": 0.7300519, "INCLINATION": 14.4344, "RA_OF_ASC_NODE": 275.4056, "ARG_OF_PERICENTER": 179.5026, "MEAN_ANOMALY": 182.358, "EPHEMERIS_TYPE": 0, "CLASSIFICATION_TYPE": "U", "NORAD_CAT_ID": 66549, "ELEMENT_SET_NO": 999, "REV_AT_EPOCH": 4, "BSTAR": 0.00062085, "MEAN_MOTION_DOT": 6.315e-05, "MEAN_MOTION_DDOT": 0}, "tle": {"line1": "1 66549U 25277A   25334.75466579  .00006315  00000+0  62085-3 0  9997", "line2": "2 66549  14.4344 275.4056 7300519 179.5026 182.3580  2.28019775    48"}}, "geometry": {"type": "Point", "coordinates": [-85.65565799044377, 0.41092069206326787]}}]}